ONEWEB-0118             
1 47264U 20100G   23313.88259027 -.00000260  00000+0 -75738-3 0  9991
2 47264  87.9036 179.6284 0001868  97.5835 262.5505 13.12441881140075
ONEWEB-0119             
1 47265U 20100H   23313.91012861  .00000419  00000+0  11300-2 0  9997
2 47265  87.9033 179.6605 0001492  75.8002 284.3292 13.12443954140054
ONEWEB-0120             
1 47266U 20100J   23313.86460342 -.00000816  00000+0 -23047-2 0  9997
2 47266  87.9037 179.6592 0001729  84.2027 275.9298 13.12448475140075
ONEWEB-0121             
1 47267U 20100K   23313.92283825  .00000261  00000+0  69042-3 0  9992
2 47267  87.9033 179.6475 0001519  71.1113 289.0180 13.12443396139992
ONEWEB-0122             
1 47268U 20100L   23313.91648168 -.00002050  00000+0 -57343-2 0  9997
2 47268  87.9040 179.6529 0001731  78.5267 281.6056 13.12454866139903
ONEWEB-0123             
1 47269U 20100M   23314.14096494  .00000114  00000+0  28086-3 0  9993
2 47269  87.9035 179.6139 0001507  78.1794 281.9503 13.12444757140075
ONEWEB-0124             
1 47270U 20100N   23314.12825849 -.00000239  00000+0 -69841-3 0  9991
2 47270  87.9032 179.6117 0001476  66.5901 293.5383 13.12442418139958
ONEWEB-0125             
1 47271U 20100P   23313.72377320 -.00000094  00000+0 -29739-3 0  9994
2 47271  87.8974 179.6670 0001942  75.8442 284.2902 13.12443320139966
